{"type": "FeatureCollection", "features": [ {"type": "Feature", "properties": {"norad_id": 38487, "name": "COSMOS 2251 DEB", "group": "cosmos-2251-debris", "lat": 44.970084745735136, "lon": 54.76886995653107, "alt_km": 524.7567547599729, "timestamp": "2025-12-10T16:57:12.037042+00:00", "meta": {"OBJECT_NAME": "COSMOS 2251 DEB", "OBJECT_ID": "1993-036BTX", "EPOCH": "2025-12-10T10:24:49.677120", "MEAN_MOTION": 15.17046489, "ECCENTRICITY": 0.0021712, "INCLINATION": 73.9735, "RA_OF_ASC_NODE": 38.6522, "ARG_OF_PERICENTER": 210.3514, "MEAN_ANOMALY": 149.6426, "EPHEMERIS_TYPE": 0, "CLASSIFICATION_TYPE": "U", "NORAD_CAT_ID": 38487, "ELEMENT_SET_NO": 999, "REV_AT_EPOCH": 66765, "BSTAR": 0.0029649, "MEAN_MOTION_DOT": 0.00059478, "MEAN_MOTION_DDOT": 0}, "tle": {"line1": "1 38487U 93036BTX 25344.43390830  .00059478  00000+0  29649-2 0  9993", "line2": "2 38487  73.9735  38.6522 0021712 210.3514 149.6426 15.17046489667658"}}, "geometry": {"type": "Point", "coordinates": [54.76886995653107, 44.970084745735136]}}, {"type": "Feature", "properties": {"norad_id": 39109, "name": "COSMOS 2251 DEB", "group": "cosmos-2251-debris", "lat": -48.75467347008801, "lon": -150.02221086415835, "alt_km": 627.2896511953131, "timestamp": "2025-12-10T16:57:12.037052+00:00", "meta": {"OBJECT_NAME": "COSMOS 2251 DEB", "OBJECT_ID": "1993-036BTY", "EPOCH": "2025-12-09T10:58:18.988608", "MEAN_MOTION": 14.70683686, "ECCENTRICITY": 0.00592583, "INCLINATION": 74.0426, "RA_OF_ASC_NODE": 231.4464, "ARG_OF_PERICENTER": 335.6145, "MEAN_ANOMALY": 202.0339, "EPHEMERIS_TYPE": 0, "CLASSIFICATION_TYPE": "U", "NORAD_CAT_ID": 39109, "ELEMENT_SET_NO": 999, "REV_AT_EPOCH": 65125, "BSTAR": 0.00089315049, "MEAN_MOTION_DOT": 5.561e-05, "MEAN_MOTION_DDOT": 0}, "tle": {"line1": "1 39109U 93036BTY 25343.45716422  .00005561  00000+0  89315-3 0  9996", "line2": "2 39109  74.0426 231.4464 0059258 335.6145 202.0339 14.70683686651254"}}, "geometry": {"type": "Point", "coordinates": [-150.02221086415835, -48.75467347008801]}}, {"type": "Feature", "properties": {"norad_id": 39110, "name": "COSMOS 2251 DEB", "group": "cosmos-2251-debris", "lat": 57.171944659760754, "lon": -140.99913243177141, "alt_km": 715.7424771627238, "timestamp": "2025-12-10T16:57:12.037062+00:00", "meta": {"OBJECT_NAME": "COSMOS 2251 DEB", "OBJECT_ID": "1993-036BTZ", "EPOCH": "2025-12-03T13:14:13.055136", "MEAN_MOTION": 14.72215365, "ECCENTRICITY": 0.00964609, "INCLINATION": 73.9598, "RA_OF_ASC_NODE": 79.4668, "ARG_OF_PERICENTER": 313.6965, "MEAN_ANOMALY": 59.6182, "EPHEMERIS_TYPE": 0, "CLASSIFICATION_TYPE": "U", "NORAD_CAT_ID": 39110, "ELEMENT_SET_NO": 999, "REV_AT_EPOCH": 62349, "BSTAR": 0.00066560445, "MEAN_MOTION_DOT": 4.484e-05, "MEAN_MOTION_DDOT": 0}, "tle": {"line1": "1 39110U 93036BTZ 25337.55153999  .00004484  00000+0  66560-3 0  9996", "line2": "2 39110  73.9598  79.4668 0096460 313.6965  59.6182 14.72215365623496"}}, "geometry": {"type": "Point", "coordinates": [-140.99913243177141, 57.171944659760754]}}, {"type": "Feature", "properties": {"norad_id": 39111, "name": "COSMOS 2251 DEB", "group": "cosmos-2251-debris", "lat": 67.70211746735488, "lon": -179.0099640926164, "alt_km": 517.8691504041853, "timestamp": "2025-12-10T16:57:12.037072+00:00", "meta": {"OBJECT_NAME": "COSMOS 2251 DEB", "OBJECT_ID": "1993-036BUA", "EPOCH": "2025-12-01T22:58:55.551360", "MEAN_MOTION": 15.11912111, "ECCENTRICITY": 0.00109111, "INCLINATION": 74.0059, "RA_OF_ASC_NODE": 63.5328, "ARG_OF_PERICENTER": 39.1207, "MEAN_ANOMALY": 321.0773, "EPHEMERIS_TYPE": 0, "CLASSIFICATION_TYPE": "U", "NORAD_CAT_ID": 39111, "ELEMENT_SET_NO": 999, "REV_AT_EPOCH": 8982, "BSTAR": 0.0056424119, "MEAN_MOTION_DOT": 0.00098096, "MEAN_MOTION_DDOT": 0}, "tle": {"line1": "1 39111U 93036BUA 25335.95758740  .00098096  00000+0  56424-2 0  9993", "line2": "2 39111  74.0059  63.5328 0010911  39.1207 321.0773 15.11912111 89826"}}, "geometry": {"type": "Point", "coordinates": [-179.0099640926164, 67.70211746735488]}}, {"type": "Feature", "properties": {"norad_id": 39546, "name": "COSMOS 2251 DEB", "group": "cosmos-2251-debris", "lat": 19.18290621449052, "lon": 146.61452648148668, "alt_km": 585.7590574208143, "timestamp": "2025-12-10T16:57:12.037081+00:00", "meta": {"OBJECT_NAME": "COSMOS 2251 DEB", "OBJECT_ID": "1993-036BUC", "EPOCH": "2025-12-10T03:59:23.245728", "MEAN_MOTION": 14.91933203, "ECCENTRICITY": 0.00440579, "INCLINATION": 73.9968, "RA_OF_ASC_NODE": 141.9703, "ARG_OF_PERICENTER": 302.2673, "MEAN_ANOMALY": 57.4244, "EPHEMERIS_TYPE": 0, "CLASSIFICATION_TYPE": "U", "NORAD_CAT_ID": 39546, "ELEMENT_SET_NO": 999, "REV_AT_EPOCH": 64398, "BSTAR": 0.0019195569, "MEAN_MOTION_DOT": 0.00019813, "MEAN_MOTION_DDOT": 0}, "tle": {"line1": "1 39546U 93036BUC 25344.16624127  .00019813  00000+0  19196-2 0  9994", "line2": "2 39546  73.9968 141.9703 0044057 302.2673  57.4244 14.91933203643980"}}, "geometry": {"type": "Point", "coordinates": [146.61452648148668, 19.18290621449052]}}, {"type": "Feature", "properties": {"norad_id": 39547, "name": "COSMOS 2251 DEB", "group": "cosmos-2251-debris", "lat": -66.436725329993, "lon": -18.592458067756116, "alt_km": 564.5779946279908, "timestamp": "2025-12-10T16:57:12.037092+00:00", "meta": {"OBJECT_NAME": "COSMOS 2251 DEB", "OBJECT_ID": "1993-036BUD", "EPOCH": "2025-12-08T21:19:55.077888", "MEAN_MOTION": 15.02877714, "ECCENTRICITY": 0.0005088, "INCLINATION": 74.0015, "RA_OF_ASC_NODE": 26.2621, "ARG_OF_PERICENTER": 23.5572, "MEAN_ANOMALY": 154.1498, "EPHEMERIS_TYPE": 0, "CLASSIFICATION_TYPE": "U", "NORAD_CAT_ID": 39547, "ELEMENT_SET_NO": 999, "REV_AT_EPOCH": 63967, "BSTAR": 0.002907, "MEAN_MOTION_DOT": 0.0003919, "MEAN_MOTION_DDOT": 0}, "tle": {"line1": "1 39547U 93036BUD 25342.88883192  .00039190  00000+0  29070-2 0  9993", "line2": "2 39547  74.0015  26.2621 0005088  23.5572 154.1498 15.02877714639676"}}, "geometry": {"type": "Point", "coordinates": [-18.592458067756116, -66.436725329993]}}, {"type": "Feature", "properties": {"norad_id": 39553, "name": "COSMOS 2251 DEB", "group": "cosmos-2251-debris", "lat": 45.47555801709124, "lon": 136.6140287819684, "alt_km": 753.6792181264273, "timestamp": "2025-12-10T16:57:12.037101+00:00", "meta": {"OBJECT_NAME": "COSMOS 2251 DEB", "OBJECT_ID": "1993-036BUK", "EPOCH": "2025-12-07T06:00:50.455872", "MEAN_MOTION": 13.99876591, "ECCENTRICITY": 0.02014092, "INCLINATION": 74.0304, "RA_OF_ASC_NODE": 339.5232, "ARG_OF_PERICENTER": 116.8065, "MEAN_ANOMALY": 245.3825, "EPHEMERIS_TYPE": 0, "CLASSIFICATION_TYPE": "U", "NORAD_CAT_ID": 39553, "ELEMENT_SET_NO": 999, "REV_AT_EPOCH": 75540, "BSTAR": 0.00088887208, "MEAN_MOTION_DOT": 1.532e-05, "MEAN_MOTION_DDOT": 0}, "tle": {"line1": "1 39553U 93036BUK 25341.25058398  .00001532  00000+0  88887-3 0  9993", "line2": "2 39553  74.0304 339.5232 0201409 116.8065 245.3825 13.99876591755403"}}, "geometry": {"type": "Point", "coordinates": [136.6140287819684, 45.47555801709124]}}, {"type": "Feature", "properties": {"norad_id": 39554, "name": "COSMOS 2251 DEB", "group": "cosmos-2251-debris", "lat": 65.29359350555444, "lon": -52.65838038441524, "alt_km": 526.7917273311932, "timestamp": "2025-12-10T16:57:12.037112+00:00", "meta": {"OBJECT_NAME": "COSMOS 2251 DEB", "OBJECT_ID": "1993-036BUL", "EPOCH": "2025-12-10T06:12:03.924864", "MEAN_MOTION": 15.10130993, "ECCENTRICITY": 0.0002993, "INCLINATION": 74.0187, "RA_OF_ASC_NODE": 269.7383, "ARG_OF_PERICENTER": 74.7531, "MEAN_ANOMALY": 81.5927, "EPHEMERIS_TYPE": 0, "CLASSIFICATION_TYPE": "U", "NORAD_CAT_ID": 39554, "ELEMENT_SET_NO": 999, "REV_AT_EPOCH": 64347, "BSTAR": 0.0046896, "MEAN_MOTION_DOT": 0.000773, "MEAN_MOTION_DDOT": 0}, "tle": {"line1": "1 39554U 93036BUL 25344.25837876  .00077300  00000+0  46896-2 0  9992", "line2": "2 39554  74.0187 269.7383 0002993  74.7531  81.5927 15.10130993643471"}}, "geometry": {"type": "Point", "coordinates": [-52.65838038441524, 65.29359350555444]}}, {"type": "Feature", "properties": {"norad_id": 39583, "name": "COSMOS 2251 DEB", "group": "cosmos-2251-debris", "lat": 57.68470347887657, "lon": 44.04763814474606, "alt_km": 723.7245125240806, "timestamp": "2025-12-10T16:57:12.037122+00:00", "meta": {"OBJECT_NAME": "COSMOS 2251 DEB", "OBJECT_ID": "1993-036BUN", "EPOCH": "2025-12-08T00:17:58.189056", "MEAN_MOTION": 14.60283512, "ECCENTRICITY": 0.01370352, "INCLINATION": 73.9395, "RA_OF_ASC_NODE": 256.3131, "ARG_OF_PERICENTER": 10.5711, "MEAN_ANOMALY": 349.8282, "EPHEMERIS_TYPE": 0, "CLASSIFICATION_TYPE": "U", "NORAD_CAT_ID": 39583, "ELEMENT_SET_NO": 999, "REV_AT_EPOCH": 61710, "BSTAR": 0.0025519779, "MEAN_MOTION_DOT": 0.00014063, "MEAN_MOTION_DDOT": 0}, "tle": {"line1": "1 39583U 93036BUN 25342.01247904  .00014063  00000+0  25520-2 0  9991", "line2": "2 39583  73.9395 256.3131 0137035  10.5711 349.8282 14.60283512617104"}}, "geometry": {"type": "Point", "coordinates": [44.04763814474606, 57.68470347887657]}}, {"type": "Feature", "properties": {"norad_id": 39585, "name": "COSMOS 2251 DEB", "group": "cosmos-2251-debris", "lat": -43.56263533707733, "lon": -70.60524151079245, "alt_km": 721.2361537183906, "timestamp": "2025-12-10T16:57:12.037132+00:00", "meta": {"OBJECT_NAME": "COSMOS 2251 DEB", "OBJECT_ID": "1993-036BUQ", "EPOCH": "2025-12-09T14:49:35.322816", "MEAN_MOTION": 14.58655096, "ECCENTRICITY": 0.0065405, "INCLINATION": 74.0411, "RA_OF_ASC_NODE": 307.2584, "ARG_OF_PERICENTER": 69.0888, "MEAN_ANOMALY": 291.7262, "EPHEMERIS_TYPE": 0, "CLASSIFICATION_TYPE": "U", "NORAD_CAT_ID": 39585, "ELEMENT_SET_NO": 999, "REV_AT_EPOCH": 62475, "BSTAR": 0.00049693, "MEAN_MOTION_DOT": 2.356e-05, "MEAN_MOTION_DDOT": 0}, "tle": {"line1": "1 39585U 93036BUQ 25343.61776994  .00002356  00000+0  49693-3 0  9996", "line2": "2 39585  74.0411 307.2584 0065405  69.0888 291.7262 14.58655096624759"}}, "geometry": {"type": "Point", "coordinates": [-70.60524151079245, -43.56263533707733]}}]}